{
  "type": "FeatureCollection",
  "features": [
    {
      "type": "Feature",
      "properties": {
        "norad_id": 44873,
        "name": "CSG-1",
        "group": "resource",
        "lat": 61.098581704860216,
        "lon": -4.71564271834202,
        "alt_km": 615.7611822261297,
        "timestamp": "2025-12-05T07:38:18.506166+00:00",
        "meta_object_name": "CSG-1",
        "meta_object_id": "2019-092A",
        "meta_epoch": "2025-12-04T18:08:48.005088",
        "meta_mean_motion": 14.8214684,
        "meta_eccentricity": 0.0001459,
        "meta_inclination": 97.8806,
        "meta_ra_of_asc_node": 160.2004,
        "meta_arg_of_pericenter": 86.8541,
        "meta_mean_anomaly": 273.2839,
        "meta_ephemeris_type": 0,
        "meta_classification_type": "U",
        "meta_norad_cat_id": 44873,
        "meta_element_set_no": 999,
        "meta_rev_at_epoch": 32267,
        "meta_bstar": 0.00015603,
        "meta_mean_motion_dot": 1.19e-05,
        "meta_mean_motion_ddot": 0,
        "tle_line1": "1 44873U 19092A   25338.75611117  .00001190  00000+0  15603-3 0  9995",
        "tle_line2": "2 44873  97.8806 160.2004 0001459  86.8541 273.2839 14.82146840322672"
      },
      "geometry": {
        "type": "Point",
        "coordinates": [
          -4.71564271834202,
          61.098581704860216
        ]
      }
    },
    {
      "type": "Feature",
      "properties": {
        "norad_id": 46277,
        "name": "NEMO-HD",
        "group": "resource",
        "lat": 11.52779712788027,
        "lon": -140.00564830836205,
        "alt_km": 447.66761308667446,
        "timestamp": "2025-12-05T07:38:18.506177+00:00",
        "meta_object_name": "NEMO-HD",
        "meta_object_id": "2020-061F",
        "meta_epoch": "2025-12-04T18:26:07.736640",
        "meta_mean_motion": 15.40082137,
        "meta_eccentricity": 0.0002306,
        "meta_inclination": 97.2226,
        "meta_ra_of_asc_node": 37.9691,
        "meta_arg_of_pericenter": 66.7345,
        "meta_mean_anomaly": 293.4144,
        "meta_ephemeris_type": 0,
        "meta_classification_type": "U",
        "meta_norad_cat_id": 46277,
        "meta_element_set_no": 999,
        "meta_rev_at_epoch": 29201,
        "meta_bstar": 0.00052034,
        "meta_mean_motion_dot": 0.00020766,
        "meta_mean_motion_ddot": 0,
        "tle_line1": "1 46277U 20061F   25338.76814510  .00020766  00000+0  52034-3 0  9995",
        "tle_line2": "2 46277  97.2226  37.9691 0002306  66.7345 293.4144 15.40082137292015"
      },
      "geometry": {
        "type": "Point",
        "coordinates": [
          -140.00564830836205,
          11.52779712788027
        ]
      }
    },
    {
      "type": "Feature",
      "properties": {
        "norad_id": 46984,
        "name": "SENTINEL-6A",
        "group": "resource",
        "lat": 63.95040072286317,
        "lon": -116.81459581420484,
        "alt_km": 1336.507844230463,
        "timestamp": "2025-12-05T07:38:18.506187+00:00",
        "meta_object_name": "SENTINEL-6A",
        "meta_object_id": "2020-086A",
        "meta_epoch": "2025-12-04T16:14:03.093216",
        "meta_mean_motion": 12.80930272,
        "meta_eccentricity": 0.0007731,
        "meta_inclination": 66.039,
        "meta_ra_of_asc_node": 179.0559,
        "meta_arg_of_pericenter": 269.1528,
        "meta_mean_anomaly": 90.8601,
        "meta_ephemeris_type": 0,
        "meta_classification_type": "U",
        "meta_norad_cat_id": 46984,
        "meta_element_set_no": 999,
        "meta_rev_at_epoch": 23541,
        "meta_bstar": 0.00018539,
        "meta_mean_motion_dot": -1.8e-07,
        "meta_mean_motion_ddot": 0,
        "tle_line1": "1 46984U 20086A   25338.67642469 -.00000018  00000+0  18539-3 0  9990",
        "tle_line2": "2 46984  66.0390 179.0559 0007731 269.1528  90.8601 12.80930272235417"
      },
      "geometry": {
        "type": "Point",
        "coordinates": [
          -116.81459581420484,
          63.95040072286317
        ]
      }
    },
    {
      "type": "Feature",
      "properties": {
        "norad_id": 48079,
        "name": "GAOFEN-12 02",
        "group": "resource",
        "lat": 56.859449131767114,
        "lon": -39.054213104938285,
        "alt_km": 620.5392468287455,
        "timestamp": "2025-12-05T07:38:18.506198+00:00",
        "meta_object_name": "GAOFEN-12 02",
        "meta_object_id": "2021-026A",
        "meta_epoch": "2025-12-04T18:24:12.982752",
        "meta_mean_motion": 14.80660402,
        "meta_eccentricity": 0.0003312,
        "meta_inclination": 97.9849,
        "meta_ra_of_asc_node": 332.8119,
        "meta_arg_of_pericenter": 116.927,
        "meta_mean_anomaly": 243.2281,
        "meta_ephemeris_type": 0,
        "meta_classification_type": "U",
        "meta_norad_cat_id": 48079,
        "meta_element_set_no": 999,
        "meta_rev_at_epoch": 25299,
        "meta_bstar": 0.00013989,
        "meta_mean_motion_dot": 1.022e-05,
        "meta_mean_motion_ddot": 0,
        "tle_line1": "1 48079U 21026A   25338.76681693  .00001022  00000+0  13989-3 0  9993",
        "tle_line2": "2 48079  97.9849 332.8119 0003312 116.9270 243.2281 14.80660402252998"
      },
      "geometry": {
        "type": "Point",
        "coordinates": [
          -39.054213104938285,
          56.859449131767114
        ]
      }
    },
    {
      "type": "Feature",
      "properties": {
        "norad_id": 48268,
        "name": "PLEIADES NEO 3",
        "group": "resource",
        "lat": 78.72515673429668,
        "lon": -84.02559896347495,
        "alt_km": 615.7932916382842,
        "timestamp": "2025-12-05T07:38:18.506208+00:00",
        "meta_object_name": "PLEIADES NEO 3",
        "meta_object_id": "2021-034A",
        "meta_epoch": "2025-12-04T18:13:53.114592",
        "meta_mean_motion": 14.81674622,
        "meta_eccentricity": 0.0001323,
        "meta_inclination": 97.8948,
        "meta_ra_of_asc_node": 51.3146,
        "meta_arg_of_pericenter": 91.4402,
        "meta_mean_anomaly": 268.6963,
        "meta_ephemeris_type": 0,
        "meta_classification_type": "U",
        "meta_norad_cat_id": 48268,
        "meta_element_set_no": 999,
        "meta_rev_at_epoch": 24886,
        "meta_bstar": -1.7902e-06,
        "meta_mean_motion_dot": -6.6e-07,
        "meta_mean_motion_ddot": 0,
        "tle_line1": "1 48268U 21034A   25338.75964253 -.00000066  00000+0 -17902-5 0  9997",
        "tle_line2": "2 48268  97.8948  51.3146 0001323  91.4402 268.6963 14.81674622248863"
      },
      "geometry": {
        "type": "Point",
        "coordinates": [
          -84.02559896347495,
          78.72515673429668
        ]
      }
    },
    {
      "type": "Feature",
      "properties": {
        "norad_id": 49070,
        "name": "PLEIADES NEO 4",
        "group": "resource",
        "lat": -78.70860240785767,
        "lon": 95.88789559070297,
        "alt_km": 632.3186706064762,
        "timestamp": "2025-12-05T07:38:18.506218+00:00",
        "meta_object_name": "PLEIADES NEO 4",
        "meta_object_id": "2021-073E",
        "meta_epoch": "2025-12-04T17:25:14.715264",
        "meta_mean_motion": 14.81674029,
        "meta_eccentricity": 0.0001329,
        "meta_inclination": 97.8949,
        "meta_ra_of_asc_node": 51.2776,
        "meta_arg_of_pericenter": 96.693,
        "meta_mean_anomaly": 263.4434,
        "meta_ephemeris_type": 0,
        "meta_classification_type": "U",
        "meta_norad_cat_id": 49070,
        "meta_element_set_no": 999,
        "meta_rev_at_epoch": 23257,
        "meta_bstar": 3.3601e-06,
        "meta_mean_motion_dot": -2.6e-07,
        "meta_mean_motion_ddot": 0,
        "tle_line1": "1 49070U 21073E   25338.72586476 -.00000026  00000+0  33601-5 0  9995",
        "tle_line2": "2 49070  97.8949  51.2776 0001329  96.6930 263.4434 14.81674029232571"
      },
      "geometry": {
        "type": "Point",
        "coordinates": [
          95.88789559070297,
          -78.70860240785767
        ]
      }
    },
    {
      "type": "Feature",
      "properties": {
        "norad_id": 49260,
        "name": "LANDSAT 9",
        "group": "resource",
        "lat": -49.17303473470737,
        "lon": -142.08324617298732,
        "alt_km": 709.9326352718199,
        "timestamp": "2025-12-05T07:38:18.506228+00:00",
        "meta_object_name": "LANDSAT 9",
        "meta_object_id": "2021-088A",
        "meta_epoch": "2025-12-04T15:45:16.682112",
        "meta_mean_motion": 14.57117787,
        "meta_eccentricity": 0.0001076,
        "meta_inclination": 98.2103,
        "meta_ra_of_asc_node": 46.8842,
        "meta_arg_of_pericenter": 92.867,
        "meta_mean_anomaly": 267.2652,
        "meta_ephemeris_type": 0,
        "meta_classification_type": "U",
        "meta_norad_cat_id": 49260,
        "meta_element_set_no": 999,
        "meta_rev_at_epoch": 22267,
        "meta_bstar": 0.00021529,
        "meta_mean_motion_dot": 9.25e-06,
        "meta_mean_motion_ddot": 0,
        "tle_line1": "1 49260U 21088A   25338.65644308  .00000925  00000+0  21529-3 0  9994",
        "tle_line2": "2 49260  98.2103  46.8842 0001076  92.8670 267.2652 14.57117787222671"
      },
      "geometry": {
        "type": "Point",
        "coordinates": [
          -142.08324617298732,
          -49.17303473470737
        ]
      }
    }
  ]
}